{"type": "FeatureCollection", "features": [ {"type": "Feature", "properties": {"norad_id": 33867, "name": "IRIDIUM 33 DEB", "group": "iridium-33-debris", "lat": -22.320481633358998, "lon": -6.617768622944397, "alt_km": 415.3060859617244, "timestamp": "2025-12-03T10:52:57.839789+00:00", "meta": {"OBJECT_NAME": "IRIDIUM 33 DEB", "OBJECT_ID": "1997-051AL", "EPOCH": "2025-12-03T01:42:14.527872", "MEAN_MOTION": 15.53496276, "ECCENTRICITY": 0.0012049, "INCLINATION": 86.3625, "RA_OF_ASC_NODE": 355.0733, "ARG_OF_PERICENTER": 100.6254, "MEAN_ANOMALY": 259.6365, "EPHEMERIS_TYPE": 0, "CLASSIFICATION_TYPE": "U", "NORAD_CAT_ID": 33867, "ELEMENT_SET_NO": 999, "REV_AT_EPOCH": 89360, "BSTAR": 0.0074943, "MEAN_MOTION_DOT": 0.00506591, "MEAN_MOTION_DDOT": 0}, "tle": {"line1": "1 33867U 97051AL  25337.07100148  .00506591  00000+0  74943-2 0  9994", "line2": "2 33867  86.3625 355.0733 0012049 100.6254 259.6365 15.53496276893609"}}, "geometry": {"type": "Point", "coordinates": [-6.617768622944397, -22.320481633358998]}}, {"type": "Feature", "properties": {"norad_id": 33870, "name": "IRIDIUM 33 DEB", "group": "iridium-33-debris", "lat": -82.04800999516496, "lon": -90.775108950608, "alt_km": 738.3510668419694, "timestamp": "2025-12-03T10:52:57.839801+00:00", "meta": {"OBJECT_NAME": "IRIDIUM 33 DEB", "OBJECT_ID": "1997-051AP", "EPOCH": "2025-12-03T04:49:08.389056", "MEAN_MOTION": 14.45760529, "ECCENTRICITY": 0.0020475, "INCLINATION": 86.3757, "RA_OF_ASC_NODE": 62.349, "ARG_OF_PERICENTER": 209.9044, "MEAN_ANOMALY": 178.6407, "EPHEMERIS_TYPE": 0, "CLASSIFICATION_TYPE": "U", "NORAD_CAT_ID": 33870, "ELEMENT_SET_NO": 999, "REV_AT_EPOCH": 87999, "BSTAR": 0.0011974, "MEAN_MOTION_DOT": 4.273e-05, "MEAN_MOTION_DDOT": 0}, "tle": {"line1": "1 33870U 97051AP  25337.20079154  .00004273  00000+0  11974-2 0  9990", "line2": "2 33870  86.3757  62.3490 0020475 209.9044 178.6407 14.45760529879997"}}, "geometry": {"type": "Point", "coordinates": [-90.775108950608, -82.04800999516496]}}, {"type": "Feature", "properties": {"norad_id": 33881, "name": "IRIDIUM 33 DEB", "group": "iridium-33-debris", "lat": 44.28107298454326, "lon": -72.7574531139399, "alt_km": 685.8918065261578, "timestamp": "2025-12-03T10:52:57.839812+00:00", "meta": {"OBJECT_NAME": "IRIDIUM 33 DEB", "OBJECT_ID": "1997-051BA", "EPOCH": "2025-12-02T21:39:24.291936", "MEAN_MOTION": 14.56279134, "ECCENTRICITY": 0.0061128, "INCLINATION": 86.3865, "RA_OF_ASC_NODE": 111.0151, "ARG_OF_PERICENTER": 206.5604, "MEAN_ANOMALY": 282.3625, "EPHEMERIS_TYPE": 0, "CLASSIFICATION_TYPE": "U", "NORAD_CAT_ID": 33881, "ELEMENT_SET_NO": 999, "REV_AT_EPOCH": 87357, "BSTAR": 0.0024856, "MEAN_MOTION_DOT": 0.00011311, "MEAN_MOTION_DDOT": 0}, "tle": {"line1": "1 33881U 97051BA  25336.90236449  .00011311  00000+0  24856-2 0  9994", "line2": "2 33881  86.3865 111.0151 0061128 206.5604 282.3625 14.56279134873572"}}, "geometry": {"type": "Point", "coordinates": [-72.7574531139399, 44.28107298454326]}}, {"type": "Feature", "properties": {"norad_id": 33884, "name": "IRIDIUM 33 DEB", "group": "iridium-33-debris", "lat": 72.65647815409406, "lon": -177.71827425268543, "alt_km": 633.911389792991, "timestamp": "2025-12-03T10:52:57.839823+00:00", "meta": {"OBJECT_NAME": "IRIDIUM 33 DEB", "OBJECT_ID": "1997-051BD", "EPOCH": "2025-12-03T02:24:03.792960", "MEAN_MOTION": 14.77130142, "ECCENTRICITY": 0.0010689, "INCLINATION": 86.3701, "RA_OF_ASC_NODE": 14.1694, "ARG_OF_PERICENTER": 359.2537, "MEAN_ANOMALY": 29.5165, "EPHEMERIS_TYPE": 0, "CLASSIFICATION_TYPE": "U", "NORAD_CAT_ID": 33884, "ELEMENT_SET_NO": 999, "REV_AT_EPOCH": 88705, "BSTAR": 0.0017256, "MEAN_MOTION_DOT": 0.0001224, "MEAN_MOTION_DDOT": 0}, "tle": {"line1": "1 33884U 97051BD  25337.10004390  .00012240  00000+0  17256-2 0  9996", "line2": "2 33884  86.3701  14.1694 0010689 359.2537  29.5165 14.77130142887052"}}, "geometry": {"type": "Point", "coordinates": [-177.71827425268543, 72.65647815409406]}}, {"type": "Feature", "properties": {"norad_id": 33886, "name": "IRIDIUM 33 DEB", "group": "iridium-33-debris", "lat": -30.507525534566398, "lon": 69.0011992052123, "alt_km": 772.3636010613836, "timestamp": "2025-12-03T10:52:57.839834+00:00", "meta": {"OBJECT_NAME": "IRIDIUM 33 DEB", "OBJECT_ID": "1997-051BF", "EPOCH": "2025-12-02T18:50:03.765984", "MEAN_MOTION": 14.36031496, "ECCENTRICITY": 0.0012058, "INCLINATION": 86.3833, "RA_OF_ASC_NODE": 71.4183, "ARG_OF_PERICENTER": 279.8713, "MEAN_ANOMALY": 194.8492, "EPHEMERIS_TYPE": 0, "CLASSIFICATION_TYPE": "U", "NORAD_CAT_ID": 33886, "ELEMENT_SET_NO": 999, "REV_AT_EPOCH": 87909, "BSTAR": 0.00028159, "MEAN_MOTION_DOT": 8.38e-06, "MEAN_MOTION_DDOT": 0}, "tle": {"line1": "1 33886U 97051BF  25336.78476581  .00000838  00000+0  28159-3 0  9991", "line2": "2 33886  86.3833  71.4183 0012058 279.8713 194.8492 14.36031496879095"}}, "geometry": {"type": "Point", "coordinates": [69.0011992052123, -30.507525534566398]}}, {"type": "Feature", "properties": {"norad_id": 33887, "name": "IRIDIUM 33 DEB", "group": "iridium-33-debris", "lat": -46.47769452899835, "lon": -168.7046625916398, "alt_km": 772.5726109246871, "timestamp": "2025-12-03T10:52:57.839845+00:00", "meta": {"OBJECT_NAME": "IRIDIUM 33 DEB", "OBJECT_ID": "1997-051BG", "EPOCH": "2025-12-03T03:25:59.530368", "MEAN_MOTION": 14.3720697, "ECCENTRICITY": 0.0004033, "INCLINATION": 86.3052, "RA_OF_ASC_NODE": 7.5276, "ARG_OF_PERICENTER": 272.7551, "MEAN_ANOMALY": 148.8319, "EPHEMERIS_TYPE": 0, "CLASSIFICATION_TYPE": "U", "NORAD_CAT_ID": 33887, "ELEMENT_SET_NO": 999, "REV_AT_EPOCH": 88027, "BSTAR": 0.00019308, "MEAN_MOTION_DOT": 5.94e-06, "MEAN_MOTION_DDOT": 0}, "tle": {"line1": "1 33887U 97051BG  25337.14305012  .00000594  00000+0  19308-3 0  9998", "line2": "2 33887  86.3052   7.5276 0004033 272.7551 148.8319 14.37206970880279"}}, "geometry": {"type": "Point", "coordinates": [-168.7046625916398, -46.47769452899835]}}, {"type": "Feature", "properties": {"norad_id": 33953, "name": "IRIDIUM 33 DEB", "group": "iridium-33-debris", "lat": -20.30031334423588, "lon": -120.85100704177803, "alt_km": 709.4945509166537, "timestamp": "2025-12-03T10:52:57.839856+00:00", "meta": {"OBJECT_NAME": "IRIDIUM 33 DEB", "OBJECT_ID": "1997-051BN", "EPOCH": "2025-12-02T16:23:53.820384", "MEAN_MOTION": 14.55150368, "ECCENTRICITY": 0.0018426, "INCLINATION": 86.3853, "RA_OF_ASC_NODE": 58.1431, "ARG_OF_PERICENTER": 133.5713, "MEAN_ANOMALY": 354.392, "EPHEMERIS_TYPE": 0, "CLASSIFICATION_TYPE": "U", "NORAD_CAT_ID": 33953, "ELEMENT_SET_NO": 999, "REV_AT_EPOCH": 88157, "BSTAR": 0.0017185, "MEAN_MOTION_DOT": 7.461e-05, "MEAN_MOTION_DDOT": 0}, "tle": {"line1": "1 33953U 97051BN  25336.68326181  .00007461  00000+0  17185-2 0  9990", "line2": "2 33953  86.3853  58.1431 0018426 133.5713 354.3920 14.55150368881577"}}, "geometry": {"type": "Point", "coordinates": [-120.85100704177803, -20.30031334423588]}}, {"type": "Feature", "properties": {"norad_id": 33960, "name": "IRIDIUM 33 DEB", "group": "iridium-33-debris", "lat": 81.4618674015499, "lon": 88.00535983030753, "alt_km": 603.6709214255725, "timestamp": "2025-12-03T10:52:57.839868+00:00", "meta": {"OBJECT_NAME": "IRIDIUM 33 DEB", "OBJECT_ID": "1997-051BV", "EPOCH": "2025-12-03T04:01:29.493408", "MEAN_MOTION": 14.84361166, "ECCENTRICITY": 0.0007033, "INCLINATION": 86.2527, "RA_OF_ASC_NODE": 294.0241, "ARG_OF_PERICENTER": 74.9059, "MEAN_ANOMALY": 296.7867, "EPHEMERIS_TYPE": 0, "CLASSIFICATION_TYPE": "U", "NORAD_CAT_ID": 33960, "ELEMENT_SET_NO": 999, "REV_AT_EPOCH": 88725, "BSTAR": 0.0043684, "MEAN_MOTION_DOT": 0.00036868, "MEAN_MOTION_DDOT": 0}, "tle": {"line1": "1 33960U 97051BV  25337.16770247  .00036868  00000+0  43684-2 0  9994", "line2": "2 33960  86.2527 294.0241 0007033  74.9059 296.7867 14.84361166887257"}}, "geometry": {"type": "Point", "coordinates": [88.00535983030753, 81.4618674015499]}}, {"type": "Feature", "properties": {"norad_id": 33966, "name": "IRIDIUM 33 DEB", "group": "iridium-33-debris", "lat": 24.01380872267704, "lon": -131.59853428864318, "alt_km": 724.8750248963852, "timestamp": "2025-12-03T10:52:57.839879+00:00", "meta": {"OBJECT_NAME": "IRIDIUM 33 DEB", "OBJECT_ID": "1997-051CB", "EPOCH": "2025-12-03T03:37:07.733280", "MEAN_MOTION": 14.49525905, "ECCENTRICITY": 0.0006365, "INCLINATION": 86.3933, "RA_OF_ASC_NODE": 50.1415, "ARG_OF_PERICENTER": 222.9834, "MEAN_ANOMALY": 154.5391, "EPHEMERIS_TYPE": 0, "CLASSIFICATION_TYPE": "U", "NORAD_CAT_ID": 33966, "ELEMENT_SET_NO": 999, "REV_AT_EPOCH": 88303, "BSTAR": 0.00080992, "MEAN_MOTION_DOT": 3.124e-05, "MEAN_MOTION_DDOT": 0}, "tle": {"line1": "1 33966U 97051CB  25337.15078395  .00003124  00000+0  80992-3 0  9997", "line2": "2 33966  86.3933  50.1415 0006365 222.9834 154.5391 14.49525905883031"}}, "geometry": {"type": "Point", "coordinates": [-131.59853428864318, 24.01380872267704]}}, {"type": "Feature", "properties": {"norad_id": 34071, "name": "IRIDIUM 33 DEB", "group": "iridium-33-debris", "lat": -46.716855133074816, "lon": -154.24551993304294, "alt_km": 734.9922897691085, "timestamp": "2025-12-03T10:52:57.839889+00:00", "meta": {"OBJECT_NAME": "IRIDIUM 33 DEB", "OBJECT_ID": "1997-051CE", "EPOCH": "2025-12-03T03:12:46.088064", "MEAN_MOTION": 14.49393252, "ECCENTRICITY": 0.0009475, "INCLINATION": 86.3467, "RA_OF_ASC_NODE": 22.0034, "ARG_OF_PERICENTER": 133.6126, "MEAN_ANOMALY": 226.5866, "EPHEMERIS_TYPE": 0, "CLASSIFICATION_TYPE": "U", "NORAD_CAT_ID": 34071, "ELEMENT_SET_NO": 999, "REV_AT_EPOCH": 88195, "BSTAR": 0.00081893, "MEAN_MOTION_DOT": 3.151e-05, "MEAN_MOTION_DDOT": 0}, "tle": {"line1": "1 34071U 97051CE  25337.13386676  .00003151  00000+0  81893-3 0  9998", "line2": "2 34071  86.3467  22.0034 0009475 133.6126 226.5866 14.49393252881957"}}, "geometry": {"type": "Point", "coordinates": [-154.24551993304294, -46.716855133074816]}}]}